[{"OBJECT_NAME":"TRANSPORTER-15 OBJECT R","OBJECT_ID":"2025-276R","EPOCH":"2026-03-09T16:52:42.731904","MEAN_MOTION":15.20705036,"ECCENTRICITY":0.00051791,"INCLINATION":97.4189,"RA_OF_ASC_NODE":143.9638,"ARG_OF_PERICENTER":19.2989,"MEAN_ANOMALY":340.8441,"EPHEMERIS_TYPE":0,"CLASSIFICATION_TYPE":"U","NORAD_CAT_ID":66681,"ELEMENT_SET_NO":999,"REV_AT_EPOCH":1532,"BSTAR":0.00086230498,"MEAN_MOTION_DOT":0.00018928,"MEAN_MOTION_DDOT":0},{"OBJECT_NAME":"LUNA-1","OBJECT_ID":"2025-276DR","EPOCH":"2026-03-09T16:52:45.597792","MEAN_MOTION":15.20784486,"ECCENTRICITY":0.00020745,"INCLINATION":97.4326,"RA_OF_ASC_NODE":144.29,"ARG_OF_PERICENTER":174.5439,"MEAN_ANOMALY":185.582,"EPHEMERIS_TYPE":0,"CLASSIFICATION_TYPE":"U","NORAD_CAT_ID":66777,"ELEMENT_SET_NO":999,"REV_AT_EPOCH":1533,"BSTAR":0.00042338714,"MEAN_MOTION_DOT":9.266e-5,"MEAN_MOTION_DDOT":0}]
